GLOBALSTAR M035         
1 25851U 99037A   25014.27973968 -.00000090  00000+0 -99601-3 0  9990
2 25851  51.9973  38.1929 0013799  93.8479 349.6687 11.04535671 79257
GLOBALSTAR M032         
1 25852U 99037B   25014.87398279 -.00000044  00000+0  71490-3 0  9997
2 25852  51.9918 232.6435 0009912 272.3491  87.6173 11.19055565117628
GLOBALSTAR M051         
1 25853U 99037C   25015.43251678 -.00000058  00000+0  34627-3 0  9998
2 25853  51.9811  49.3938 0000701 278.9368  81.1363 11.42200169114955
GLOBALSTAR M030         
1 25854U 99037D   25014.83089545 -.00000054  00000+0  44606-3 0  9998
2 25854  51.9843 226.7030 0004506 122.0938 238.0316 11.55103548132323
GLOBALSTAR M048         
1 25872U 99041A   25014.89313181 -.00000058  00000+0  33386-3 0  9992
2 25872  51.9401 339.8031 0013134 280.9118 117.3774 11.33853318107592
GLOBALSTAR M026         
1 25873U 99041B   25014.72232326 -.00000144  00000+0 -29267-2 0  9995
2 25873  51.9983 156.7783 0001570  42.7086  64.1738 11.06825564131494
GLOBALSTAR M043         
1 25874U 99041C   25014.58113233 -.00000032  00000+0  10890-2 0  9992
2 25874  51.9410  82.0661 0013251  53.5523  95.9113 11.25690163105576
GLOBALSTAR M028         
1 25875U 99041D   25014.69838166 -.00000065  00000+0  23354-3 0  9990
2 25875  51.9630 290.7416 0063858  97.6770 263.1349 12.50574416170975
